H1 CPF  1  HTS 2022  9 19 12  7621 larets           NONE
H2  0304206 5557    27944 2022 09 19  0  0  0 2022 09 24  0  0  0   180 1 1  0 0 0
H5  0.0560 
H9 
10 0 59842  83880.00000  0    5183617.502    4652478.416    1118401.609
10 0 59842  84060.00000  0    5116497.517    4213554.379    2412497.268
10 0 59842  84240.00000  0    4848945.895    3625065.057    3617807.361
10 0 59842  84420.00000  0    4387273.068    2913773.778    4690057.040
10 0 59842  84600.00000  0    3745673.107    2110664.023    5589972.976
10 0 59842  84780.00000  0    2945742.855    1249561.501    6284723.822
10 0 59842  84960.00000  0    2015696.787     365682.622    6749084.761
10 0 59842  85140.00000  0     989327.145    -505817.234    6966300.804
10 0 59842  85320.00000  0     -95251.926   -1331239.972    6928645.786
10 0 59842  85500.00000  0   -1197033.303   -2079642.967    6637660.373
10 0 59842  85680.00000  0   -2273665.427   -2723990.730    6104069.331
10 0 59842  85860.00000  0   -3283067.001   -3242123.893    5347395.461
10 0 59842  86040.00000  0   -4185073.798   -3617526.567    4395278.957
10 0 59842  86220.00000  0   -4943051.724   -3839858.242    3282494.017
10 0 59843      0.00000  0   -5525402.256   -3905228.523    2049700.981
10 0 59843    180.00000  0   -5906903.175   -3816206.885     741968.806
10 0 59843    360.00000  0   -6069814.719   -3581559.213    -592888.010
10 0 59843    540.00000  0   -6004692.197   -3215722.177   -1906087.879
10 0 59843    720.00000  0   -5710857.510   -2738040.243   -3149701.581
10 0 59843    900.00000  0   -5196506.172   -2171807.762   -4278422.987
10 0 59843   1080.00000  0   -4478455.276   -1543170.886   -5251218.620
10 0 59843   1260.00000  0   -3581550.567    -879945.176   -6032795.471
10 0 59843   1440.00000  0   -2537764.596    -210404.516   -6594836.191
10 0 59843   1620.00000  0   -1385032.487     437902.328   -6916968.357
10 0 59843   1800.00000  0    -165873.831    1039258.917   -6987451.871
10 0 59843   1980.00000  0    1074148.491    1570778.898   -6803580.476
10 0 59843   2160.00000  0    2288094.751    2013264.690   -6371799.424
10 0 59843   2340.00000  0    3429402.080    2351904.227   -5707523.690
10 0 59843   2520.00000  0    4453663.568    2576778.960   -4834649.566
10 0 59843   2700.00000  0    5320377.770    2683166.868   -3784768.426
10 0 59843   2880.00000  0    5994602.549    2671625.348   -2596081.520
10 0 59843   3060.00000  0    6448435.367    2547845.226   -1312042.263
10 0 59843   3240.00000  0    6662243.810    2322275.423      20240.361
10 0 59843   3420.00000  0    6625568.608    2009529.485    1351774.334
10 0 59843   3600.00000  0    6337642.844    1627603.476    2633549.061
10 0 59843   3780.00000  0    5807502.029    1196948.275    3818409.816
10 0 59843   3960.00000  0    5053668.099     739443.374    4862851.152
10 0 59843   4140.00000  0    4103433.553     277332.956    5728640.902
10 0 59843   4320.00000  0    2991793.090    -167820.566    6384214.947
10 0 59843   4500.00000  0    1760079.674    -576112.436    6805790.623
10 0 59843   4680.00000  0     454379.110    -930158.894    6978180.443
10 0 59843   4860.00000  0    -876222.665   -1215819.358    6895292.040
10 0 59843   5040.00000  0   -2181490.113   -1422750.137    6560305.302
10 0 59843   5220.00000  0   -3411922.849   -1544771.110    5985536.730
10 0 59843   5400.00000  0   -4520624.790   -1580037.241    5192005.856
10 0 59843   5580.00000  0   -5465105.522   -1531016.301    4208697.247
10 0 59843   5760.00000  0   -6208935.943   -1404268.334    3071527.650
10 0 59843   5940.00000  0   -6723189.064   -1210035.222    1822054.644
10 0 59843   6120.00000  0   -6987611.916    -961661.451     505963.278
10 0 59843   6300.00000  0   -6991458.242    -674870.033    -828626.007
10 0 59843   6480.00000  0   -6733933.173    -366929.659   -2132949.548
10 0 59843   6660.00000  0   -6224230.432     -55757.995   -3359412.199
10 0 59843   6840.00000  0   -5481166.943     240991.843   -4463344.514
10 0 59843   7020.00000  0   -4532428.918     506818.277   -5404629.123
10 0 59843   7200.00000  0   -3413480.146     727185.583   -6149128.821
10 0 59843   7380.00000  0   -2166191.801     890225.962   -6669873.671
10 0 59843   7560.00000  0    -837259.774     987302.164   -6947980.232
10 0 59843   7740.00000  0     523531.285    1013412.805   -6973289.262
10 0 59843   7920.00000  0    1865136.651     967425.341   -6744718.393
10 0 59843   8100.00000  0    3137133.786     852129.844   -6270329.002
10 0 59843   8280.00000  0    4291601.212     674110.152   -5567086.224
10 0 59843   8460.00000  0    5284930.198     443433.267   -4660317.791
10 0 59843   8640.00000  0    6079515.395     173166.966   -3582874.108
10 0 59843   8820.00000  0    6645252.208    -121259.830   -2373992.846
10 0 59843   9000.00000  0    6960769.637    -422828.989   -1077896.186
10 0 59843   9180.00000  0    7014326.868    -713801.553     257841.702
10 0 59843   9360.00000  0    6804314.570    -976638.167    1584087.483
10 0 59843   9540.00000  0    6339328.080   -1194924.141    2852023.697
10 0 59843   9720.00000  0    5637799.225   -1354245.930    4015017.624
10 0 59843   9900.00000  0    4727209.622   -1442971.142    5030387.236
10 0 59843  10080.00000  0    3642937.184   -1452891.783    5860988.385
10 0 59843  10260.00000  0    2426802.143   -1379696.781    6476562.350
10 0 59843  10440.00000  0    1125388.524   -1223259.245    6854799.870
10 0 59843  10620.00000  0    -211782.229    -987727.346    6982099.980
10 0 59843  10800.00000  0   -1534152.876    -681414.996    6854008.793
10 0 59843  10980.00000  0   -2792035.714    -316500.181    6475342.074
10 0 59843  11160.00000  0   -3938466.573      91459.593    5860000.190
10 0 59843  11340.00000  0   -4930957.555     524177.672    5030478.286
10 0 59843  11520.00000  0   -5733089.716     961431.707    4017073.275
10 0 59843  11700.00000  0   -6315882.152    1381971.336    2856804.399
10 0 59843  11880.00000  0   -6658879.823    1764502.567    1592078.773
10 0 59843  12060.00000  0   -6750913.585    2088703.390     269141.328
10 0 59843  12240.00000  0   -6590487.774    2336221.663   -1063638.807
10 0 59843  12420.00000  0   -6185768.630    2491600.908   -2357569.898
10 0 59843  12600.00000  0   -5554178.306    2543089.161   -3565448.382
10 0 59843  12780.00000  0   -4721611.759    2483287.424   -4643300.583
10 0 59843  12960.00000  0   -3721325.905    2309604.339   -5551974.916
10 0 59843  13140.00000  0   -2592567.636    2024502.369   -6258526.640
10 0 59843  13320.00000  0   -1379010.711    1635528.808   -6737360.577
10 0 59843  13500.00000  0    -127062.559    1155130.156   -6971102.877
10 0 59843  13680.00000  0    1115886.925     600260.382   -6951187.446
10 0 59843  13860.00000  0    2303225.650      -8203.171   -6678161.383
10 0 59843  14040.00000  0    3390844.124    -646225.987   -6161693.200
10 0 59843  14220.00000  0    4338766.777   -1287540.869   -5420278.853
10 0 59843  14400.00000  0    5112640.809   -1904705.032   -4480649.229
10 0 59843  14580.00000  0    5685034.529   -2470259.086   -3376877.804
10 0 59843  14760.00000  0    6036484.439   -2957938.928   -2149195.717
10 0 59843  14940.00000  0    6156235.491   -3343885.188    -842542.025
10 0 59843  15120.00000  0    6042627.505   -3607788.583     495100.572
10 0 59843  15300.00000  0    5703099.845   -3733910.083    1814518.345
10 0 59843  15480.00000  0    5153803.551   -3711916.196    3067149.354
10 0 59843  15660.00000  0    4418834.804   -3537476.748    4206938.418
10 0 59843  15840.00000  0    3529144.358   -3212597.787    5192075.558
10 0 59843  16020.00000  0    2521180.000   -2745677.430    5986547.419
10 0 59843  16200.00000  0    1435337.148   -2151281.846    6561436.713
10 0 59843  16380.00000  0     314298.086   -1449662.204    6895932.322
10 0 59843  16560.00000  0    -798667.247    -666036.445    6978029.784
10 0 59843  16740.00000  0   -1861371.939     170335.262    6804915.381
10 0 59843  16920.00000  0   -2834300.755    1027248.174    6383036.336
10 0 59843  17100.00000  0   -3682070.000    1870788.754    5727860.012
10 0 59843  17280.00000  0   -4374715.736    2666668.893    4863328.736
10 0 59843  17460.00000  0   -4888769.690    3381616.401    3821016.459
10 0 59843  17640.00000  0   -5208078.177    3984765.680    2639001.532
10 0 59843  17820.00000  0   -5324328.892    4448991.621    1360491.167
10 0 59843  18000.00000  0   -5237260.794    4752125.699      32236.724
10 0 59843  18180.00000  0   -4954540.267    4877985.983   -1297200.055
10 0 59843  18360.00000  0   -4491310.142    4817172.047   -2579257.512
10 0 59843  18540.00000  0   -3869428.108    4567577.827   -3767182.173
10 0 59843  18720.00000  0   -3116440.092    4134595.735   -4817746.852
10 0 59843  18900.00000  0   -2264349.689    3531012.924   -5692805.256
10 0 59843  19080.00000  0   -1348253.288    2776616.460   -6360636.162
10 0 59843  19260.00000  0    -404896.618    1897523.228   -6797043.354
10 0 59843  19440.00000  0     528784.999     925265.572   -6986178.026
10 0 59843  19620.00000  0    1417087.376    -104328.922   -6921078.712
10 0 59843  19800.00000  0    2226881.397   -1152433.771   -6603921.485
10 0 59843  19980.00000  0    2928834.631   -2178658.854   -6045970.720
10 0 59843  20160.00000  0    3498477.764   -3142581.887   -5267235.593
10 0 59843  20340.00000  0    3917085.530   -4005340.571   -4295826.270
10 0 59843  20520.00000  0    4172329.206   -4731220.578   -3167001.689
10 0 59843  20700.00000  0    4258674.887   -5289171.715   -1921938.821
10 0 59843  20880.00000  0    4177504.439   -5654187.727    -606243.636
10 0 59843  21060.00000  0    3936937.299   -5808467.063     731747.598
10 0 59843  21240.00000  0    3551357.079   -5742285.824    2042801.722
10 0 59843  21420.00000  0    3040664.026   -5454528.306    3278673.441
10 0 59843  21600.00000  0    2429290.979   -4952844.300    4393943.997
10 0 59843  21780.00000  0    1745044.929   -4253431.940    5347730.306
99
